0 IRIDIUM 112
1 41925U 17003J   24007.35234001  .00000290  00000-0  96420-4 0  9999
2 41925  86.3968 101.0511 0002257 101.8130 258.3319 14.34219113365444
0 IRIDIUM 111
1 41926U 17003K   24007.33965520  .00000319  00000-0  10685-3 0  9995
2 41926  86.3969 101.1067 0002366  91.9562 268.1905 14.34217974365423
0 IRIDIUM 113
1 42803U 17039A   24007.38938856  .00000015  00000-0 -18756-5 0  9999
2 42803  86.3984 334.8334 0002482  88.0547 272.0933 14.34217674343367
0 IRIDIUM 123
1 42804U 17039B   24006.94249490  .00000320  00000-0  10712-3 0  9990
2 42804  86.3971   6.5103 0002395  90.7953 269.3517 14.34218306342061
0 IRIDIUM 120
1 42805U 17039C   24007.45281180  .00000364  00000-0  12294-3 0  9995
2 42805  86.3974 334.7052 0002224  85.9316 274.2134 14.34219838343369
0 IRIDIUM 115
1 42806U 17039D   24006.83082417  .00000470  00000-0  13373-3 0  9996
2 42806  86.4512 334.9660 0002484  88.8131 271.3354 14.43283386345555
0 IRIDIUM 118
1 42807U 17039E   24007.46258706  .00000348  00000-0  11720-3 0  9991
2 42807  86.3971   6.2949 0002204  90.6799 269.4649 14.34219034342140
0 IRIDIUM 117
1 42808U 17039F   24006.92344597  .00000092  00000-0  25951-4 0  9994
2 42808  86.3970   6.4863 0002299  86.9125 273.2334 14.34218522342080
